[{"OBJECT_NAME":"STARLINK-36780","OBJECT_ID":"2026-034S","EPOCH":"2026-03-06T01:16:09.951744","MEAN_MOTION":15.80986816,"ECCENTRICITY":0.00019878,"INCLINATION":53.16,"RA_OF_ASC_NODE":229.4395,"ARG_OF_PERICENTER":37.5801,"MEAN_ANOMALY":322.536,"EPHEMERIS_TYPE":0,"CLASSIFICATION_TYPE":"U","NORAD_CAT_ID":67866,"ELEMENT_SET_NO":999,"REV_AT_EPOCH":336,"BSTAR":0.0011202131,"MEAN_MOTION_DOT":0.00227512,"MEAN_MOTION_DDOT":0},{"OBJECT_NAME":"STARLINK-36761","OBJECT_ID":"2026-034T","EPOCH":"2026-03-06T01:15:05.629536","MEAN_MOTION":15.80917806,"ECCENTRICITY":6.658e-5,"INCLINATION":53.16,"RA_OF_ASC_NODE":229.4341,"ARG_OF_PERICENTER":45.3541,"MEAN_ANOMALY":314.7536,"EPHEMERIS_TYPE":0,"CLASSIFICATION_TYPE":"U","NORAD_CAT_ID":67867,"ELEMENT_SET_NO":999,"REV_AT_EPOCH":336,"BSTAR":0.00066725794,"MEAN_MOTION_DOT":0.00133322,"MEAN_MOTION_DDOT":0},{"OBJECT_NAME":"STARLINK-36762","OBJECT_ID":"2026-034U","EPOCH":"2026-03-06T04:16:04.223424","MEAN_MOTION":15.80937465,"ECCENTRICITY":0.00017991,"INCLINATION":53.1596,"RA_OF_ASC_NODE":228.7959,"ARG_OF_PERICENTER":59.6969,"MEAN_ANOMALY":300.4232,"EPHEMERIS_TYPE":0,"CLASSIFICATION_TYPE":"U","NORAD_CAT_ID":67868,"ELEMENT_SET_NO":999,"REV_AT_EPOCH":338,"BSTAR":0.001743495,"MEAN_MOTION_DOT":0.00359174,"MEAN_MOTION_DDOT":0},{"OBJECT_NAME":"STARLINK-36779","OBJECT_ID":"2026-034V","EPOCH":"2026-03-06T00:00:02.000160","MEAN_MOTION":15.80845266,"ECCENTRICITY":0.00012677,"INCLINATION":53.1594,"RA_OF_ASC_NODE":229.6791,"ARG_OF_PERICENTER":64.3481,"MEAN_ANOMALY":7.4784,"EPHEMERIS_TYPE":0,"CLASSIFICATION_TYPE":"U","NORAD_CAT_ID":67869,"ELEMENT_SET_NO":999,"REV_AT_EPOCH":326,"BSTAR":0.00031738147,"MEAN_MOTION_DOT":0.00062315,"MEAN_MOTION_DDOT":0},{"OBJECT_NAME":"STARLINK-36770","OBJECT_ID":"2026-034W","EPOCH":"2026-03-06T00:00:02.000160","MEAN_MOTION":15.80821612,"ECCENTRICITY":4.967e-5,"INCLINATION":53.1595,"RA_OF_ASC_NODE":229.6606,"ARG_OF_PERICENTER":40.6299,"MEAN_ANOMALY":39.7595,"EPHEMERIS_TYPE":0,"CLASSIFICATION_TYPE":"U","NORAD_CAT_ID":67870,"ELEMENT_SET_NO":999,"REV_AT_EPOCH":326,"BSTAR":0.00039655096,"MEAN_MOTION_DOT":0.00078091,"MEAN_MOTION_DDOT":0},{"OBJECT_NAME":"STARLINK-36769","OBJECT_ID":"2026-034X","EPOCH":"2026-03-06T01:11:51.121536","MEAN_MOTION":15.80926897,"ECCENTRICITY":0.00014926,"INCLINATION":53.1599,"RA_OF_ASC_NODE":229.4185,"ARG_OF_PERICENTER":32.1532,"MEAN_ANOMALY":327.9581,"EPHEMERIS_TYPE":0,"CLASSIFICATION_TYPE":"U","NORAD_CAT_ID":67871,"ELEMENT_SET_NO":999,"REV_AT_EPOCH":336,"BSTAR":0.0007389226,"MEAN_MOTION_DOT":0.00148035,"MEAN_MOTION_DDOT":0},{"OBJECT_NAME":"STARLINK-36786","OBJECT_ID":"2026-034Y","EPOCH":"2026-03-06T04:11:46.181184","MEAN_MOTION":15.80956737,"ECCENTRICITY":0.00017659,"INCLINATION":53.1598,"RA_OF_ASC_NODE":228.7752,"ARG_OF_PERICENTER":54.3116,"MEAN_ANOMALY":305.807,"EPHEMERIS_TYPE":0,"CLASSIFICATION_TYPE":"U","NORAD_CAT_ID":67872,"ELEMENT_SET_NO":999,"REV_AT_EPOCH":338,"BSTAR":0.0014293197,"MEAN_MOTION_DOT":0.00292285,"MEAN_MOTION_DDOT":0},{"OBJECT_NAME":"STARLINK-36783","OBJECT_ID":"2026-034Z","EPOCH":"2026-03-06T00:00:02.000160","MEAN_MOTION":15.80831028,"ECCENTRICITY":0.00011477,"INCLINATION":53.1594,"RA_OF_ASC_NODE":229.6429,"ARG_OF_PERICENTER":50.7538,"MEAN_ANOMALY":38.1696,"EPHEMERIS_TYPE":0,"CLASSIFICATION_TYPE":"U","NORAD_CAT_ID":67873,"ELEMENT_SET_NO":999,"REV_AT_EPOCH":326,"BSTAR":0.00033883655,"MEAN_MOTION_DOT":0.00066563,"MEAN_MOTION_DDOT":0},{"OBJECT_NAME":"STARLINK-36730","OBJECT_ID":"2026-034AA","EPOCH":"2026-03-06T00:00:02.000160","MEAN_MOTION":15.80822103,"ECCENTRICITY":0.00011773,"INCLINATION":53.1593,"RA_OF_ASC_NODE":229.6346,"ARG_OF_PERICENTER":59.0797,"MEAN_ANOMALY":34.1204,"EPHEMERIS_TYPE":0,"CLASSIFICATION_TYPE":"U","NORAD_CAT_ID":67874,"ELEMENT_SET_NO":999,"REV_AT_EPOCH":326,"BSTAR":0.00049017606,"MEAN_MOTION_DOT":0.00096909,"MEAN_MOTION_DDOT":0},{"OBJECT_NAME":"STARLINK-36727","OBJECT_ID":"2026-034AB","EPOCH":"2026-03-06T00:00:02.000160","MEAN_MOTION":15.80835052,"ECCENTRICITY":0.00010557,"INCLINATION":53.1594,"RA_OF_ASC_NODE":229.6256,"ARG_OF_PERICENTER":50.1225,"MEAN_ANOMALY":47.3455,"EPHEMERIS_TYPE":0,"CLASSIFICATION_TYPE":"U","NORAD_CAT_ID":67875,"ELEMENT_SET_NO":999,"REV_AT_EPOCH":326,"BSTAR":0.00032710632,"MEAN_MOTION_DOT":0.00064229,"MEAN_MOTION_DDOT":0},{"OBJECT_NAME":"STARLINK-36743","OBJECT_ID":"2026-034AC","EPOCH":"2026-03-06T00:00:02.000160","MEAN_MOTION":15.80817859,"ECCENTRICITY":9.999e-5,"INCLINATION":53.1595,"RA_OF_ASC_NODE":229.6162,"ARG_OF_PERICENTER":40.83,"MEAN_ANOMALY":60.9158,"EPHEMERIS_TYPE":0,"CLASSIFICATION_TYPE":"U","NORAD_CAT_ID":67876,"ELEMENT_SET_NO":999,"REV_AT_EPOCH":326,"BSTAR":0.00044913685,"MEAN_MOTION_DOT":0.00088633,"MEAN_MOTION_DDOT":0},{"OBJECT_NAME":"STARLINK-36784","OBJECT_ID":"2026-034AD","EPOCH":"2026-03-06T04:06:21.737088","MEAN_MOTION":15.80964162,"ECCENTRICITY":0.00010227,"INCLINATION":53.1604,"RA_OF_ASC_NODE":228.7493,"ARG_OF_PERICENTER":18.1823,"MEAN_ANOMALY":341.9236,"EPHEMERIS_TYPE":0,"CLASSIFICATION_TYPE":"U","NORAD_CAT_ID":67877,"ELEMENT_SET_NO":999,"REV_AT_EPOCH":338,"BSTAR":0.0014508854,"MEAN_MOTION_DOT":0.00296973,"MEAN_MOTION_DDOT":0},{"OBJECT_NAME":"STARLINK-36689","OBJECT_ID":"2026-034AE","EPOCH":"2026-03-06T00:00:02.000160","MEAN_MOTION":15.80829782,"ECCENTRICITY":0.00012148,"INCLINATION":53.1593,"RA_OF_ASC_NODE":229.599,"ARG_OF_PERICENTER":72.9564,"MEAN_ANOMALY":37.3315,"EPHEMERIS_TYPE":0,"CLASSIFICATION_TYPE":"U","NORAD_CAT_ID":67878,"ELEMENT_SET_NO":999,"REV_AT_EPOCH":326,"BSTAR":0.00031031555,"MEAN_MOTION_DOT":0.00060858,"MEAN_MOTION_DDOT":0},{"OBJECT_NAME":"STARLINK-36818","OBJECT_ID":"2026-035A","EPOCH":"2026-03-06T06:00:02.000160","MEAN_MOTION":15.9516812,"ECCENTRICITY":0.0001305,"INCLINATION":97.276,"RA_OF_ASC_NODE":357.322,"ARG_OF_PERICENTER":123.4447,"MEAN_ANOMALY":166.2094,"EPHEMERIS_TYPE":0,"CLASSIFICATION_TYPE":"U","NORAD_CAT_ID":67879,"ELEMENT_SET_NO":999,"REV_AT_EPOCH":320,"BSTAR":-0.0024212327,"MEAN_MOTION_DOT":-0.00938602,"MEAN_MOTION_DDOT":0.00027644126},{"OBJECT_NAME":"STARLINK-36821","OBJECT_ID":"2026-035B","EPOCH":"2026-03-06T06:00:02.000160","MEAN_MOTION":15.95315818,"ECCENTRICITY":0.00013009,"INCLINATION":97.2754,"RA_OF_ASC_NODE":357.3252,"ARG_OF_PERICENTER":122.5958,"MEAN_ANOMALY":174.3851,"EPHEMERIS_TYPE":0,"CLASSIFICATION_TYPE":"U","NORAD_CAT_ID":67880,"ELEMENT_SET_NO":999,"REV_AT_EPOCH":320,"BSTAR":-0.0024293071,"MEAN_MOTION_DOT":-0.00949107,"MEAN_MOTION_DDOT":0.00028266086},{"OBJECT_NAME":"STARLINK-36808","OBJECT_ID":"2026-035C","EPOCH":"2026-03-06T06:00:02.000160","MEAN_MOTION":15.95245627,"ECCENTRICITY":0.00011014,"INCLINATION":97.2754,"RA_OF_ASC_NODE":357.3231,"ARG_OF_PERICENTER":112.0351,"MEAN_ANOMALY":180.4869,"EPHEMERIS_TYPE":0,"CLASSIFICATION_TYPE":"U","NORAD_CAT_ID":67881,"ELEMENT_SET_NO":999,"REV_AT_EPOCH":320,"BSTAR":-0.0024434961,"MEAN_MOTION_DOT":-0.00951045,"MEAN_MOTION_DDOT":0.00028352538},{"OBJECT_NAME":"STARLINK-36817","OBJECT_ID":"2026-035D","EPOCH":"2026-03-06T06:00:02.000160","MEAN_MOTION":15.95459956,"ECCENTRICITY":0.00011553,"INCLINATION":97.2745,"RA_OF_ASC_NODE":357.3283,"ARG_OF_PERICENTER":110.9056,"MEAN_ANOMALY":194.839,"EPHEMERIS_TYPE":0,"CLASSIFICATION_TYPE":"U","NORAD_CAT_ID":67882,"ELEMENT_SET_NO":999,"REV_AT_EPOCH":320,"BSTAR":-0.0024555508,"MEAN_MOTION_DOT":-0.00966635,"MEAN_MOTION_DDOT":0.00029288466},{"OBJECT_NAME":"STARLINK-36856","OBJECT_ID":"2026-035E","EPOCH":"2026-03-06T06:00:02.000160","MEAN_MOTION":15.95388685,"ECCENTRICITY":0.00011443,"INCLINATION":97.275,"RA_OF_ASC_NODE":357.3269,"ARG_OF_PERICENTER":118.4384,"MEAN_ANOMALY":183.1889,"EPHEMERIS_TYPE":0,"CLASSIFICATION_TYPE":"U","NORAD_CAT_ID":67883,"ELEMENT_SET_NO":999,"REV_AT_EPOCH":320,"BSTAR":-0.0024403344,"MEAN_MOTION_DOT":-0.00957059,"MEAN_MOTION_DDOT":0.00028729923},{"OBJECT_NAME":"STARLINK-36842","OBJECT_ID":"2026-035F","EPOCH":"2026-03-06T06:00:02.000160","MEAN_MOTION":15.95550361,"ECCENTRICITY":0.00010936,"INCLINATION":97.2744,"RA_OF_ASC_NODE":357.3299,"ARG_OF_PERICENTER":105.952,"MEAN_ANOMALY":203.6521,"EPHEMERIS_TYPE":0,"CLASSIFICATION_TYPE":"U","NORAD_CAT_ID":67884,"ELEMENT_SET_NO":999,"REV_AT_EPOCH":320,"BSTAR":-0.0025369053,"MEAN_MOTION_DOT":-0.01003222,"MEAN_MOTION_DDOT":0.00031410125},{"OBJECT_NAME":"STARLINK-36826","OBJECT_ID":"2026-035G","EPOCH":"2026-03-06T06:00:02.000160","MEAN_MOTION":15.95633689,"ECCENTRICITY":0.00011733,"INCLINATION":97.2743,"RA_OF_ASC_NODE":357.3315,"ARG_OF_PERICENTER":118.2614,"MEAN_ANOMALY":194.5025,"EPHEMERIS_TYPE":0,"CLASSIFICATION_TYPE":"U","NORAD_CAT_ID":67885,"ELEMENT_SET_NO":999,"REV_AT_EPOCH":320,"BSTAR":-0.0025825469,"MEAN_MOTION_DOT":-0.01025675,"MEAN_MOTION_DDOT":0.00032755544},{"OBJECT_NAME":"STARLINK-36390","OBJECT_ID":"2026-035H","EPOCH":"2026-03-06T06:00:02.000160","MEAN_MOTION":15.95715527,"ECCENTRICITY":0.00011272,"INCLINATION":97.2738,"RA_OF_ASC_NODE":357.3332,"ARG_OF_PERICENTER":119.2578,"MEAN_ANOMALY":198.1359,"EPHEMERIS_TYPE":0,"CLASSIFICATION_TYPE":"U","NORAD_CAT_ID":67886,"ELEMENT_SET_NO":999,"REV_AT_EPOCH":325,"BSTAR":-0.0027056475,"MEAN_MOTION_DOT":-0.01078848,"MEAN_MOTION_DDOT":0.00036004715},{"OBJECT_NAME":"STARLINK-36368","OBJECT_ID":"2026-035J","EPOCH":"2026-03-06T06:00:02.000160","MEAN_MOTION":15.957836,"ECCENTRICITY":0.00011297,"INCLINATION":97.2736,"RA_OF_ASC_NODE":357.335,"ARG_OF_PERICENTER":114.9701,"MEAN_ANOMALY":206.8483,"EPHEMERIS_TYPE":0,"CLASSIFICATION_TYPE":"U","NORAD_CAT_ID":67887,"ELEMENT_SET_NO":999,"REV_AT_EPOCH":320,"BSTAR":-0.0027813107,"MEAN_MOTION_DOT":-0.01112787,"MEAN_MOTION_DDOT":0.00038158897},{"OBJECT_NAME":"STARLINK-36801","OBJECT_ID":"2026-035K","EPOCH":"2026-03-06T06:00:02.000160","MEAN_MOTION":15.95839449,"ECCENTRICITY":0.00011272,"INCLINATION":97.2734,"RA_OF_ASC_NODE":357.3368,"ARG_OF_PERICENTER":114.7468,"MEAN_ANOMALY":211.3508,"EPHEMERIS_TYPE":0,"CLASSIFICATION_TYPE":"U","NORAD_CAT_ID":67888,"ELEMENT_SET_NO":999,"REV_AT_EPOCH":320,"BSTAR":-0.0027961715,"MEAN_MOTION_DOT":-0.01122012,"MEAN_MOTION_DDOT":0.00038769763}]
